{
  "norad_id": 66995,
  "name": "2025-292C",
  "history": [
    {
      "epoch": "2026-03-28T21:48:45.770112Z",
      "apogee_km": 558.338871504262,
      "perigee_km": 539.5634147176479,
      "latitude_deg": 2.4484236398355055e-05,
      "longitude_deg": 10.91113567716044,
      "height_km": 552.0459932149018,
      "semi_major_axis_km": 6927.088143110955,
      "eccentricity": 0.00135522,
      "inclination_deg": 97.6345,
      "raan_deg": 164.4244,
      "arg_perigee_deg": 269.8596,
      "mean_anomaly_deg": 90.1078,
      "mean_motion_rev_day": 15.05832587
    },
    {
      "epoch": "2026-03-29T04:11:30.878016Z",
      "apogee_km": 558.3333367839341,
      "perigee_km": 539.531884446802,
      "latitude_deg": 1.034442665886614e-05,
      "longitude_deg": -84.77569628145355,
      "height_km": 552.1841610909062,
      "semi_major_axis_km": 6927.069610615368,
      "eccentricity": 0.0013571,
      "inclination_deg": 97.6344,
      "raan_deg": 164.6875,
      "arg_perigee_deg": 268.9049,
      "mean_anomaly_deg": 91.0623,
      "mean_motion_rev_day": 15.0583863
    },
    {
      "epoch": "2026-03-30T04:06:49.594176Z",
      "apogee_km": 558.3485167650306,
      "perigee_km": 539.4349575011638,
      "latitude_deg": -7.063349906440288e-05,
      "longitude_deg": -83.59960498039585,
      "height_km": 552.7430115110109,
      "semi_major_axis_km": 6927.028737133097,
      "eccentricity": 0.0013652,
      "inclination_deg": 97.6341,
      "raan_deg": 165.674,
      "arg_perigee_deg": 265.2734,
      "mean_anomaly_deg": 94.6933,
      "mean_motion_rev_day": 15.05851958
    },
    {
      "epoch": "2026-03-30T05:42:30.802464Z",
      "apogee_km": 558.3485344571773,
      "perigee_km": 539.4258439390615,
      "latitude_deg": -5.73440666354076e-05,
      "longitude_deg": -107.52100316569992,
      "height_km": 552.7826349494394,
      "semi_major_axis_km": 6927.0241891981195,
      "eccentricity": 0.00136586,
      "inclination_deg": 97.6341,
      "raan_deg": 165.7398,
      "arg_perigee_deg": 265.0073,
      "mean_anomaly_deg": 94.9594,
      "mean_motion_rev_day": 15.05853441
    },
    {
      "epoch": "2026-03-30T13:40:56.812800Z",
      "apogee_km": 558.3721241767962,
      "perigee_km": 539.3699557216087,
      "latitude_deg": -3.8982369308829185e-05,
      "longitude_deg": 132.8722422725064,
      "height_km": 552.9758366427333,
      "semi_major_axis_km": 6927.008039949203,
      "eccentricity": 0.0013716,
      "inclination_deg": 97.6342,
      "raan_deg": 166.0689,
      "arg_perigee_deg": 263.7599,
      "mean_anomaly_deg": 96.2065,
      "mean_motion_rev_day": 15.05858707
    },
    {
      "epoch": "2026-03-30T21:39:22.749696Z",
      "apogee_km": 558.3536367936049,
      "perigee_km": 539.3605117413708,
      "latitude_deg": 5.426089654886291e-05,
      "longitude_deg": 13.265684566536757,
      "height_km": 553.1766282421411,
      "semi_major_axis_km": 6926.994074267487,
      "eccentricity": 0.00137095,
      "inclination_deg": 97.6342,
      "raan_deg": 166.3979,
      "arg_perigee_deg": 262.4522,
      "mean_anomaly_deg": 97.5148,
      "mean_motion_rev_day": 15.05863261
    },
    {
      "epoch": "2026-03-31T19:58:58.876896Z",
      "apogee_km": 558.3443291208423,
      "perigee_km": 539.2868970916643,
      "latitude_deg": 5.005332695302072e-05,
      "longitude_deg": 38.36943133938256,
      "height_km": 553.7049881395817,
      "semi_major_axis_km": 6926.952613106253,
      "eccentricity": 0.0013756,
      "inclination_deg": 97.6344,
      "raan_deg": 167.3191,
      "arg_perigee_deg": 259.0068,
      "mean_anomaly_deg": 100.9612,
      "mean_motion_rev_day": 15.05876781
    },
    {
      "epoch": "2026-04-01T19:54:15.376032Z",
      "apogee_km": 558.3250202086228,
      "perigee_km": 539.2261368471054,
      "latitude_deg": -2.951656130496688e-05,
      "longitude_deg": 39.55518598487611,
      "height_km": 554.2802900790709,
      "semi_major_axis_km": 6926.912578527864,
      "eccentricity": 0.0013786,
      "inclination_deg": 97.6344,
      "raan_deg": 168.306,
      "arg_perigee_deg": 255.2446,
      "mean_anomaly_deg": 104.7253,
      "mean_motion_rev_day": 15.05889836
    },
    {
      "epoch": "2026-04-02T19:49:30.918720Z",
      "apogee_km": 558.2580553980824,
      "perigee_km": 539.1524391117036,
      "latitude_deg": 2.1071216949194455e-05,
      "longitude_deg": 40.7449189203086,
      "height_km": 554.7987585100171,
      "semi_major_axis_km": 6926.842247254893,
      "eccentricity": 0.0013791,
      "inclination_deg": 97.6344,
      "raan_deg": 169.2929,
      "arg_perigee_deg": 251.5659,
      "mean_anomaly_deg": 108.4069,
      "mean_motion_rev_day": 15.05912771
    },
    {
      "epoch": "2026-04-02T23:00:52.910208Z",
      "apogee_km": 558.2446718699857,
      "perigee_km": 539.1520969632102,
      "latitude_deg": 1.0985769572690998e-05,
      "longitude_deg": -7.096096574308204,
      "height_km": 554.8626989519983,
      "semi_major_axis_km": 6926.835384416598,
      "eccentricity": 0.00137816,
      "inclination_deg": 97.6344,
      "raan_deg": 169.4245,
      "arg_perigee_deg": 251.1045,
      "mean_anomaly_deg": 108.8688,
      "mean_motion_rev_day": 15.05915009
    },
    {
      "epoch": "2026-04-03T19:44:45.211200Z",
      "apogee_km": 558.2064763355356,
      "perigee_km": 539.0677993926174,
      "latitude_deg": -2.6103233409442162e-05,
      "longitude_deg": 41.93988762274225,
      "height_km": 555.294368463036,
      "semi_major_axis_km": 6926.774137864077,
      "eccentricity": 0.0013815,
      "inclination_deg": 97.6344,
      "raan_deg": 170.2798,
      "arg_perigee_deg": 248.0034,
      "mean_anomaly_deg": 111.9725,
      "mean_motion_rev_day": 15.05934982
    },
    {
      "epoch": "2026-04-04T19:39:58.281120Z",
      "apogee_km": 558.1340211299321,
      "perigee_km": 539.041197416931,
      "latitude_deg": -7.024914111459421e-05,
      "longitude_deg": 43.14016301644275,
      "height_km": 555.8331036538767,
      "semi_major_axis_km": 6926.724609273431,
      "eccentricity": 0.0013782,
      "inclination_deg": 97.6343,
      "raan_deg": 171.2669,
      "arg_perigee_deg": 244.0845,
      "mean_anomaly_deg": 115.8961,
      "mean_motion_rev_day": 15.05951134
    },
    {
      "epoch": "2026-04-05T13:12:27.271296Z",
      "apogee_km": 558.0884679068922,
      "perigee_km": 539.0144459031135,
      "latitude_deg": 2.2305458407751446e-05,
      "longitude_deg": 140.02275798991093,
      "height_km": 556.1986455042218,
      "semi_major_axis_km": 6926.688456905003,
      "eccentricity": 0.00137685,
      "inclination_deg": 97.6343,
      "raan_deg": 171.9907,
      "arg_perigee_deg": 241.3422,
      "mean_anomaly_deg": 118.6421,
      "mean_motion_rev_day": 15.05962924
    },
    {
      "epoch": "2026-04-05T19:35:10.443840Z",
      "apogee_km": 558.0769355435723,
      "perigee_km": 539.0036369681384,
      "latitude_deg": 2.3479252953106537e-05,
      "longitude_deg": 44.344209539059506,
      "height_km": 556.3379922655113,
      "semi_major_axis_km": 6926.677286255855,
      "eccentricity": 0.0013768,
      "inclination_deg": 97.6343,
      "raan_deg": 172.254,
      "arg_perigee_deg": 240.3057,
      "mean_anomaly_deg": 119.68,
      "mean_motion_rev_day": 15.05966567
    },
    {
      "epoch": "2026-04-06T06:44:55.875264Z",
      "apogee_km": 558.0456144577074,
      "perigee_km": 538.9973036952479,
      "latitude_deg": 2.854188650763612e-05,
      "longitude_deg": -123.09292227004423,
      "height_km": 556.5698470253897,
      "semi_major_axis_km": 6926.658459076478,
      "eccentricity": 0.001375,
      "inclination_deg": 97.6342,
      "raan_deg": 172.7146,
      "arg_perigee_deg": 238.5112,
      "mean_anomaly_deg": 121.4772,
      "mean_motion_rev_day": 15.05972707
    },
    {
      "epoch": "2026-04-07T21:01:13.434816Z",
      "apogee_km": 557.9785694762286,
      "perigee_km": 538.966411746399,
      "latitude_deg": -2.390623005485964e-05,
      "longitude_deg": 22.841359094445995,
      "height_km": 557.3602158838722,
      "semi_major_axis_km": 6926.609490611314,
      "eccentricity": 0.0013724,
      "inclination_deg": 97.6341,
      "raan_deg": 174.2938,
      "arg_perigee_deg": 232.2954,
      "mean_anomaly_deg": 127.7029,
      "mean_motion_rev_day": 15.05988677
    },
    {
      "epoch": "2026-04-08T14:33:40.994208Z",
      "apogee_km": 557.9736449700767,
      "perigee_km": 538.9317572227928,
      "latitude_deg": 4.8528117512502327e-05,
      "longitude_deg": 119.73003359227789,
      "height_km": 557.7148449219852,
      "semi_major_axis_km": 6926.5897010964345,
      "eccentricity": 0.00137455,
      "inclination_deg": 97.6341,
      "raan_deg": 175.0177,
      "arg_perigee_deg": 229.462,
      "mean_anomaly_deg": 130.5411,
      "mean_motion_rev_day": 15.05995131
    },
    {
      "epoch": "2026-04-09T20:51:33.435072Z",
      "apogee_km": 557.9701007190843,
      "perigee_km": 538.8597439653422,
      "latitude_deg": -2.2700656703840148e-05,
      "longitude_deg": 25.267545195646317,
      "height_km": 558.289407349507,
      "semi_major_axis_km": 6926.5519223422125,
      "eccentricity": 0.0013795,
      "inclination_deg": 97.6339,
      "raan_deg": 176.268,
      "arg_perigee_deg": 224.6267,
      "mean_anomaly_deg": 135.385,
      "mean_motion_rev_day": 15.06007452
    },
    {
      "epoch": "2026-04-10T11:12:38.992608Z",
      "apogee_km": 557.9847529856452,
      "perigee_km": 538.8038025712212,
      "latitude_deg": 2.1499107918393774e-05,
      "longitude_deg": 169.99738444996458,
      "height_km": 558.5717813988672,
      "semi_major_axis_km": 6926.531277778433,
      "eccentricity": 0.0013846,
      "inclination_deg": 97.634,
      "raan_deg": 176.8604,
      "arg_perigee_deg": 222.2111,
      "mean_anomaly_deg": 137.8051,
      "mean_motion_rev_day": 15.06014185
    }
  ]
}